     3.02           N: GNSS NAV DATA    G: GPS NAV DATA     RINEX VERSION / TYPE
NetR9 5.54          Receiver Operator   20241219 135822 UTC PGM / RUN BY / DATE
GPSA    .2421D-07   .7451D-08  -.1192D-06   .1192D-06       IONOSPHERIC CORR
GPSB    .1475D+06  -.2130D+06   .0000D+00   .3277D+06       IONOSPHERIC CORR
GPUT  -.1862645149D-08 -.444089210D-14 589824 2345          TIME SYSTEM CORR
    18    18  2441     7                                    LEAP SECONDS
                                                            END OF HEADER
G12 2024 12 19 16 00 00 -.559335574508D-03 -.238742359215D-11  .000000000000D+00
      .172000000000D+03  .493750000000D+01  .485198781905D-08  .106869983175D+01
      .763684511185D-07  .893634976819D-02  .659003853798D-05  .515377038765D+04
      .403200000000D+06 -.186264514923D-06  .264503044932D+01 -.558793544769D-07
      .961160843704D+00  .254406250000D+03  .146185889000D+01 -.821784230612D-08
     -.281440294547D-09  .100000000000D+01  .234500000000D+04  .000000000000D+00
      .200000000000D+01  .000000000000D+00 -.125728547573D-07  .172000000000D+03
      .396018000000D+06  .400000000000D+01
G19 2024 12 19 16 00 00  .575748272240D-03  .466116034659D-11  .000000000000D+00
      .182000000000D+03  .410000000000D+02  .430910806308D-08  .108888151080D+00
      .195018947124D-05  .100044297287D-01  .100210309029D-04  .515359938049D+04
      .403200000000D+06  .145286321640D-06 -.255632539340D+01 -.122934579849D-06
      .965312564252D+00  .193406250000D+03  .269419255308D+01 -.800247619240D-08
     -.483591572101D-09  .100000000000D+01  .234500000000D+04  .000000000000D+00
      .280000000000D+01  .000000000000D+00 -.153668224812D-07  .182000000000D+03
      .396018000000D+06  .400000000000D+01
G17 2024 12 19 16 00 00  .512321013957D-03 -.162572177942D-10  .000000000000D+00
      .730000000000D+02  .491562500000D+02  .423339062343D-08 -.176089678193D+01
      .264309346676D-05  .134173006518D-01  .102315098047D-04  .515359769821D+04
      .403200000000D+06 -.987201929092D-07 -.260051875734D+01  .309199094772D-06
      .966116803466D+00  .188250000000D+03 -.125308402812D+01 -.781853995929D-08
     -.497520723735D-09  .100000000000D+01  .234500000000D+04  .000000000000D+00
      .200000000000D+01  .000000000000D+00 -.107102096081D-07  .730000000000D+02
      .396018000000D+06  .400000000000D+01
G20 2024 12 19 16 00 00  .367762986571D-03 -.341060513165D-12  .000000000000D+00
      .240000000000D+02 -.937500000000D+01  .465019369923D-08  .291850994672D+01
     -.482425093651D-06  .384611613117D-02  .200420618057D-05  .515366237068D+04
      .403200000000D+06 -.558793544769D-07 -.745515643068D+00 -.521540641785D-07
      .956613411131D+00  .336843750000D+03 -.239570914075D+01 -.837999191744D-08
      .917895376884D-10  .100000000000D+01  .234500000000D+04  .000000000000D+00
      .200000000000D+01  .000000000000D+00 -.838190317154D-08  .240000000000D+02
      .396018000000D+06  .400000000000D+01
G03 2024 12 19 16 00 00  .628134701401D-03  .864019966684D-11  .000000000000D+00
      .700000000000D+01 -.425312500000D+02  .406481217289D-08  .123753468502D+01
     -.230595469475D-05  .566004728898D-02  .241771340370D-05  .515360855293D+04
      .403200000000D+06 -.115483999252D-06 -.559080102010D+00 -.931322574615D-08
      .987588804055D+00  .345156250000D+03  .114820203870D+01 -.820319883902D-08
     -.128576784311D-10  .100000000000D+01  .234500000000D+04  .000000000000D+00
      .200000000000D+01  .000000000000D+00  .139698386192D-08  .263000000000D+03
      .396018000000D+06  .400000000000D+01
G24 2024 12 19 16 00 00 -.472130253911D-03  .318323145621D-11  .000000000000D+00
      .107000000000D+03 -.943750000000D+01  .510521265260D-08  .267414260834D+01
     -.623986124992D-06  .164023098769D-01  .912882387638D-05  .515369109917D+04
      .403200000000D+06  .484287738800D-07  .142790883018D+01 -.253319740295D-06
      .933741867537D+00  .186718750000D+03  .103994032084D+01 -.790675791963D-08
      .390373403476D-09  .100000000000D+01  .234500000000D+04  .000000000000D+00
      .200000000000D+01  .000000000000D+00  .232830643654D-08  .107000000000D+03
      .396018000000D+06  .400000000000D+01
G11 2024 12 19 16 00 00 -.752706546336D-03 -.113686837722D-12  .000000000000D+00
      .600000000000D+01  .922812500000D+02  .416910223127D-08 -.263033366270D+01
      .490806996822D-05  .177003908902D-02  .599212944508D-05  .515359064293D+04
      .403200000000D+06 -.167638063431D-07 -.156666906185D+01 -.186264514923D-07
      .965796873522D+00  .265468750000D+03 -.235389450648D+01 -.801997692137D-08
      .212866009581D-09  .100000000000D+01  .234500000000D+04  .000000000000D+00
      .200000000000D+01  .000000000000D+00 -.884756445885D-08  .600000000000D+01
      .396018000000D+06  .400000000000D+01
G04 2024 12 19 16 00 00  .498431269079D-03  .613908923697D-11  .000000000000D+00
      .900000000000D+02 -.101718750000D+03  .420553232016D-08 -.203914492998D+01
     -.547617673874D-05  .319879234303D-02  .986270606518D-05  .515368890190D+04
      .403200000000D+06  .204890966415D-07  .516997323631D+00 -.316649675369D-07
      .966719120486D+00  .194437500000D+03 -.298007365176D+01 -.784782689349D-08
      .119647840956D-09  .100000000000D+01  .234500000000D+04  .000000000000D+00
      .200000000000D+01  .000000000000D+00 -.465661287308D-08  .602000000000D+03
      .396036000000D+06  .400000000000D+01
G05 2024 12 19 16 00 00 -.196484383196D-03 -.113686837722D-11  .000000000000D+00
      .640000000000D+02 -.277500000000D+02  .429267880730D-08 -.139302146265D+01
     -.120326876640D-05  .562063918915D-02  .259466469288D-05  .515371918106D+04
      .403200000000D+06  .279396772385D-07 -.613096134303D+00  .158324837685D-06
      .974424128608D+00  .333062500000D+03  .133045457324D+01 -.822462830307D-08
      .539308178636D-10  .100000000000D+01  .234500000000D+04  .000000000000D+00
      .200000000000D+01  .000000000000D+00 -.107102096081D-07  .640000000000D+02
      .396672000000D+06  .400000000000D+01
